{
  "norad_id": 51988,
  "name": "STARLINK-3640",
  "history": [
    {
      "epoch": "2026-03-28T21:44:30.505632",
      "apogee_km": 540.6770918179654,
      "perigee_km": 538.8327818276093,
      "latitude_deg": 52.04711651187781,
      "longitude_deg": -174.2327715200372,
      "semi_major_axis_km": 6917.891936822787,
      "eccentricity": 0.0001333,
      "inclination_deg": 53.2176,
      "raan_deg": 312.8584,
      "arg_perigee_deg": 86.9331,
      "mean_anomaly_deg": 273.1814,
      "mean_motion_rev_day": 15.08836222
    }
  ]
}